[
  {
    "COMMENT": "GENERATED VIA SPACETRACK.ORG API",
    "ORIGINATOR": "18 SPCS",
    "NORAD_CAT_ID": "26997",
    "OBJECT_NAME": "JASON",
    "OBJECT_TYPE": "PAYLOAD",
    "CLASSIFICATION_TYPE": "U",
    "INTLDES": "01055A",
    "EPOCH": "2023-04-21 13:14:42",
    "EPOCH_MICROSECONDS": "955584",
    "MEAN_MOTION": "12.84020793",
    "ECCENTRICITY": "0.0006924",
    "INCLINATION": "66.0407",
    "RA_OF_ASC_NODE": "321.5081",
    "ARG_OF_PERICENTER": "264.1452",
    "MEAN_ANOMALY": "127.1298",
    "EPHEMERIS_TYPE": "0",
    "ELEMENT_SET_NO": "999",
    "REV_AT_EPOCH": "64",
    "BSTAR": "0.00023046",
    "MEAN_MOTION_DOT": "-0.00000006",
    "MEAN_MOTION_DDOT": "0",
    "FILE": "3891529",
    "TLE_LINE0": "0 JASON",
    "TLE_LINE1": "1 26997U 01055A   23111.55188606 -.00000006  00000-0  23046-3 0  9996",
    "TLE_LINE2": "2 26997  66.0407 321.5081 0006924 264.1452 127.1298 12.84020793   649",
    "OBJECT_ID": "2001-055A",
    "OBJECT_NUMBER": "26997",
    "SEMIMAJOR_AXIS": "7703.483",
    "PERIOD": "112.148",
    "APOGEE": "1330.682",
    "PERIGEE": "1320.014",
    "DECAYED": "0"
  },
  {
    "COMMENT": "GENERATED VIA SPACETRACK.ORG API",
    "ORIGINATOR": "18 SPCS",
    "NORAD_CAT_ID": "26997",
    "OBJECT_NAME": "JASON",
    "OBJECT_TYPE": "PAYLOAD",
    "CLASSIFICATION_TYPE": "U",
    "INTLDES": "01055A",
    "EPOCH": "2023-04-21 20:37:15",
    "EPOCH_MICROSECONDS": "383712",
    "MEAN_MOTION": "12.84020818",
    "ECCENTRICITY": "0.0006923",
    "INCLINATION": "66.0406",
    "RA_OF_ASC_NODE": "320.8662",
    "ARG_OF_PERICENTER": "264.126",
    "MEAN_ANOMALY": "107.5872",
    "EPHEMERIS_TYPE": "0",
    "ELEMENT_SET_NO": "999",
    "REV_AT_EPOCH": "68",
    "BSTAR": "0.000222",
    "MEAN_MOTION_DOT": "-0.00000008",
    "MEAN_MOTION_DDOT": "0",
    "FILE": "3891716",
    "TLE_LINE0": "0 JASON",
    "TLE_LINE1": "1 26997U 01055A   23111.85920583 -.00000008  00000-0  22200-3 0  9990",
    "TLE_LINE2": "2 26997  66.0406 320.8662 0006923 264.1260 107.5872 12.84020818   683",
    "OBJECT_ID": "2001-055A",
    "OBJECT_NUMBER": "26997",
    "SEMIMAJOR_AXIS": "7703.483",
    "PERIOD": "112.148",
    "APOGEE": "1330.681",
    "PERIGEE": "1320.015",
    "DECAYED": "0"
  },
  {
    "COMMENT": "GENERATED VIA SPACETRACK.ORG API",
    "ORIGINATOR": "18 SPCS",
    "NORAD_CAT_ID": "26997",
    "OBJECT_NAME": "JASON",
    "OBJECT_TYPE": "PAYLOAD",
    "CLASSIFICATION_TYPE": "U",
    "INTLDES": "01055A",
    "EPOCH": "2023-04-22 13:28:17",
    "EPOCH_MICROSECONDS": "959008",
    "MEAN_MOTION": "12.84020861",
    "ECCENTRICITY": "0.0006917",
    "INCLINATION": "66.0405",
    "RA_OF_ASC_NODE": "319.3995",
    "ARG_OF_PERICENTER": "264.1667",
    "MEAN_ANOMALY": "112.7278",
    "EPHEMERIS_TYPE": "0",
    "ELEMENT_SET_NO": "999",
    "REV_AT_EPOCH": "77",
    "BSTAR": "0.00019133",
    "MEAN_MOTION_DOT": "-0.00000016",
    "MEAN_MOTION_DDOT": "0",
    "FILE": "3892071",
    "TLE_LINE0": "0 JASON",
    "TLE_LINE1": "1 26997U 01055A   23112.56131897 -.00000016  00000-0  19133-3 0  9991",
    "TLE_LINE2": "2 26997  66.0405 319.3995 0006917 264.1667 112.7278 12.84020861   774",
    "OBJECT_ID": "2001-055A",
    "OBJECT_NUMBER": "26997",
    "SEMIMAJOR_AXIS": "7703.483",
    "PERIOD": "112.148",
    "APOGEE": "1330.676",
    "PERIGEE": "1320.019",
    "DECAYED": "0"
  },
  {
    "COMMENT": "GENERATED VIA SPACETRACK.ORG API",
    "ORIGINATOR": "18 SPCS",
    "NORAD_CAT_ID": "26997",
    "OBJECT_NAME": "JASON",
    "OBJECT_TYPE": "PAYLOAD",
    "CLASSIFICATION_TYPE": "U",
    "INTLDES": "01055A",
    "EPOCH": "2023-04-22 20:55:25",
    "EPOCH_MICROSECONDS": "336128",
    "MEAN_MOTION": "12.84020895",
    "ECCENTRICITY": "0.0006913",
    "INCLINATION": "66.0405",
    "RA_OF_ASC_NODE": "318.7509",
    "ARG_OF_PERICENTER": "264.122",
    "MEAN_ANOMALY": "107.9195",
    "EPHEMERIS_TYPE": "0",
    "ELEMENT_SET_NO": "999",
    "REV_AT_EPOCH": "81",
    "BSTAR": "0.00019685",
    "MEAN_MOTION_DOT": "-0.00000014",
    "MEAN_MOTION_DDOT": "0",
    "FILE": "3892285",
    "TLE_LINE0": "0 JASON",
    "TLE_LINE1": "1 26997U 01055A   23112.87182102 -.00000014  00000-0  19685-3 0  9990",
    "TLE_LINE2": "2 26997  66.0405 318.7509 0006913 264.1220 107.9195 12.84020895   815",
    "OBJECT_ID": "2001-055A",
    "OBJECT_NUMBER": "26997",
    "SEMIMAJOR_AXIS": "7703.483",
    "PERIOD": "112.148",
    "APOGEE": "1330.673",
    "PERIGEE": "1320.022",
    "DECAYED": "0"
  },
  {
    "COMMENT": "GENERATED VIA SPACETRACK.ORG API",
    "ORIGINATOR": "18 SPCS",
    "NORAD_CAT_ID": "26997",
    "OBJECT_NAME": "JASON",
    "OBJECT_TYPE": "PAYLOAD",
    "CLASSIFICATION_TYPE": "U",
    "INTLDES": "01055A",
    "EPOCH": "2023-04-23 11:50:59",
    "EPOCH_MICROSECONDS": "270784",
    "MEAN_MOTION": "12.84020939",
    "ECCENTRICITY": "0.0006908",
    "INCLINATION": "66.0405",
    "RA_OF_ASC_NODE": "317.4518",
    "ARG_OF_PERICENTER": "264.1633",
    "MEAN_ANOMALY": "102.4077",
    "EPHEMERIS_TYPE": "0",
    "ELEMENT_SET_NO": "999",
    "REV_AT_EPOCH": "89",
    "BSTAR": "0.00018494",
    "MEAN_MOTION_DOT": "-0.00000017",
    "MEAN_MOTION_DDOT": "0",
    "FILE": "3892688",
    "TLE_LINE0": "0 JASON",
    "TLE_LINE1": "1 26997U 01055A   23113.49374156 -.00000017  00000-0  18494-3 0  9991",
    "TLE_LINE2": "2 26997  66.0405 317.4518 0006908 264.1633 102.4077 12.84020939   899",
    "OBJECT_ID": "2001-055A",
    "OBJECT_NUMBER": "26997",
    "SEMIMAJOR_AXIS": "7703.483",
    "PERIOD": "112.148",
    "APOGEE": "1330.669",
    "PERIGEE": "1320.026",
    "DECAYED": "0"
  },
  {
    "COMMENT": "GENERATED VIA SPACETRACK.ORG API",
    "ORIGINATOR": "18 SPCS",
    "NORAD_CAT_ID": "26997",
    "OBJECT_NAME": "JASON",
    "OBJECT_TYPE": "PAYLOAD",
    "CLASSIFICATION_TYPE": "U",
    "INTLDES": "01055A",
    "EPOCH": "2023-04-23 19:21:12",
    "EPOCH_MICROSECONDS": "297312",
    "MEAN_MOTION": "12.84021009",
    "ECCENTRICITY": "0.0006905",
    "INCLINATION": "66.0404",
    "RA_OF_ASC_NODE": "316.7987",
    "ARG_OF_PERICENTER": "264.0853",
    "MEAN_ANOMALY": "107.5645",
    "EPHEMERIS_TYPE": "0",
    "ELEMENT_SET_NO": "999",
    "REV_AT_EPOCH": "93",
    "BSTAR": "0.00019769",
    "MEAN_MOTION_DOT": "-0.00000014",
    "MEAN_MOTION_DDOT": "0",
    "FILE": "3892831",
    "TLE_LINE0": "0 JASON",
    "TLE_LINE1": "1 26997U 01055A   23113.80639233 -.00000014  00000-0  19769-3 0  9999",
    "TLE_LINE2": "2 26997  66.0404 316.7987 0006905 264.0853 107.5645 12.84021009   931",
    "OBJECT_ID": "2001-055A",
    "OBJECT_NUMBER": "26997",
    "SEMIMAJOR_AXIS": "7703.482",
    "PERIOD": "112.148",
    "APOGEE": "1330.667",
    "PERIGEE": "1320.028",
    "DECAYED": "0"
  },
  {
    "COMMENT": "GENERATED VIA SPACETRACK.ORG API",
    "ORIGINATOR": "18 SPCS",
    "NORAD_CAT_ID": "26997",
    "OBJECT_NAME": "JASON",
    "OBJECT_TYPE": "PAYLOAD",
    "CLASSIFICATION_TYPE": "U",
    "INTLDES": "01055A",
    "EPOCH": "2023-04-23 23:34:52",
    "EPOCH_MICROSECONDS": "823712",
    "MEAN_MOTION": "12.84021219",
    "ECCENTRICITY": "0.00069",
    "INCLINATION": "66.0403",
    "RA_OF_ASC_NODE": "316.4307",
    "ARG_OF_PERICENTER": "264.0719",
    "MEAN_ANOMALY": "201.81",
    "EPHEMERIS_TYPE": "0",
    "ELEMENT_SET_NO": "999",
    "REV_AT_EPOCH": "95",
    "BSTAR": "0.00031942",
    "MEAN_MOTION_DOT": "0.00000015",
    "MEAN_MOTION_DDOT": "0",
    "FILE": "3893330",
    "TLE_LINE0": "0 JASON",
    "TLE_LINE1": "1 26997U 01055A   23113.98255583  .00000015  00000-0  31942-3 0  9997",
    "TLE_LINE2": "2 26997  66.0403 316.4307 0006900 264.0719 201.8100 12.84021219   958",
    "OBJECT_ID": "2001-055A",
    "OBJECT_NUMBER": "26997",
    "SEMIMAJOR_AXIS": "7703.481",
    "PERIOD": "112.148",
    "APOGEE": "1330.662",
    "PERIGEE": "1320.031",
    "DECAYED": "0"
  },
  {
    "COMMENT": "GENERATED VIA SPACETRACK.ORG API",
    "ORIGINATOR": "18 SPCS",
    "NORAD_CAT_ID": "26997",
    "OBJECT_NAME": "JASON",
    "OBJECT_TYPE": "PAYLOAD",
    "CLASSIFICATION_TYPE": "U",
    "INTLDES": "01055A",
    "EPOCH": "2023-04-25 12:30:10",
    "EPOCH_MICROSECONDS": "315872",
    "MEAN_MOTION": "12.84021209",
    "ECCENTRICITY": "0.0006888",
    "INCLINATION": "66.0401",
    "RA_OF_ASC_NODE": "313.2171",
    "ARG_OF_PERICENTER": "264.0068",
    "MEAN_ANOMALY": "112.3783",
    "EPHEMERIS_TYPE": "0",
    "ELEMENT_SET_NO": "999",
    "REV_AT_EPOCH": "115",
    "BSTAR": "0.00019194",
    "MEAN_MOTION_DOT": "-0.00000015",
    "MEAN_MOTION_DDOT": "0",
    "FILE": "3894092",
    "TLE_LINE0": "0 JASON",
    "TLE_LINE1": "1 26997U 01055A   23115.52095273 -.00000015  00000-0  19194-3 0  9993",
    "TLE_LINE2": "2 26997  66.0401 313.2171 0006888 264.0068 112.3783 12.84021209  1157",
    "OBJECT_ID": "2001-055A",
    "OBJECT_NUMBER": "26997",
    "SEMIMAJOR_AXIS": "7703.481",
    "PERIOD": "112.148",
    "APOGEE": "1330.653",
    "PERIGEE": "1320.040",
    "DECAYED": "0"
  },
  {
    "COMMENT": "GENERATED VIA SPACETRACK.ORG API",
    "ORIGINATOR": "18 SPCS",
    "NORAD_CAT_ID": "26997",
    "OBJECT_NAME": "JASON",
    "OBJECT_TYPE": "PAYLOAD",
    "CLASSIFICATION_TYPE": "U",
    "INTLDES": "01055A",
    "EPOCH": "2023-04-26 06:08:37",
    "EPOCH_MICROSECONDS": "249152",
    "MEAN_MOTION": "12.84021262",
    "ECCENTRICITY": "0.0006884",
    "INCLINATION": "66.0401",
    "RA_OF_ASC_NODE": "311.6816",
    "ARG_OF_PERICENTER": "264.0042",
    "MEAN_ANOMALY": "269.7238",
    "EPHEMERIS_TYPE": "0",
    "ELEMENT_SET_NO": "999",
    "REV_AT_EPOCH": "124",
    "BSTAR": "0.00020183",
    "MEAN_MOTION_DOT": "-0.00000013",
    "MEAN_MOTION_DDOT": "0",
    "FILE": "3894260",
    "TLE_LINE0": "0 JASON",
    "TLE_LINE1": "1 26997U 01055A   23116.25598668 -.00000013  00000-0  20183-3 0  9998",
    "TLE_LINE2": "2 26997  66.0401 311.6816 0006884 264.0042 269.7238 12.84021262  1244",
    "OBJECT_ID": "2001-055A",
    "OBJECT_NUMBER": "26997",
    "SEMIMAJOR_AXIS": "7703.481",
    "PERIOD": "112.148",
    "APOGEE": "1330.649",
    "PERIGEE": "1320.043",
    "DECAYED": "0"
  }
]